FENGYUN 3D              
1 43010U 17072A   26192.95444144 -.00000149  00000+0 -48337-4 0  9994
2 43010  99.0137 167.8256 0001715  21.6629 338.4619 14.19743963448506
NOAA 20 (JPSS-1)        
1 43013U 17073A   26192.88298842  .00000018  00000+0  29660-4 0  9993
2 43013  98.7774 132.1267 0001264 127.5722 232.5569 14.19516105447972
GOES 17                 
1 43226U 18022A   26192.83232931 -.00000180  00000+0  00000+0 0  9999
2 43226   0.9976  85.3070 0000543  96.7368 317.8350  1.00273239 30674
SENTINEL-3B             
1 43437U 18039A   26192.17410468  .00000038  00000+0  33847-4 0  9992
2 43437  98.6238 259.3610 0001054 120.7417 239.3868 14.26741288427541
FENGYUN 2H              
1 43491U 18050A   26192.89226338 -.00000126  00000+0  00000+0 0  9994
2 43491   3.0910  78.7850 0002270 132.0761 119.3294  1.00267542 29683
METOP-C                 
1 43689U 18087A   26192.91474251  .00000031  00000+0  34156-4 0  9993
2 43689  98.6632 252.0648 0002218  98.1437 261.9992 14.21518429398340
GEO-KOMPSAT-2A          
1 43823U 18100A   26192.80416251 -.00000339  00000+0  00000+0 0  9991
2 43823   0.0255 118.0813 0001946 343.4761 245.9138  1.00271415 27871
METEOR-M2 2             
1 44387U 19038A   26192.97126361 -.00000204  00000+0 -68509-4 0  9991
2 44387  98.9156 180.6234 0000919   9.8243 350.2953 14.24371584364824
ARKTIKA-M 1             
1 47719U 21016A   26188.42887598 -.00000257  00000+0  00000+0 0  9997
2 47719  63.2524  54.6812 7295086 270.0380  14.5466  2.00614486 39194
FENGYUN 3E              
1 49008U 21062A   26193.00603852 -.00000187  00000+0 -67359-4 0  9998
2 49008  98.7501 196.1372 0002386  45.2416 314.8954 14.19905313260102
GOES 18                 
1 51850U 22021A   26192.75163609  .00000101  00000+0  00000+0 0  9993
2 51850   0.0131  84.2137 0000611 110.7308 228.2976  1.00272566  6831
NOAA 21 (JPSS-2)        
1 54234U 22150A   26192.91533936  .00000004  00000+0  22423-4 0  9997
2 54234  98.7061 131.2892 0002753 110.4009 249.7463 14.19540751190056
METEOSAT-12 (MTG-I1)    
1 54743U 22170C   26192.85003052 -.00000004  00000+0  00000+0 0  9991
2 54743   0.7214  19.1046 0003787  82.8397 133.5456  1.00267004 13227
TIANMU-1 03             
1 55973U 23039A   26192.94311380  .00009368  00000+0  18120-3 0  9995
2 55973  97.5236   7.8955 0002846  35.4916 324.6523 15.47982042184667
TIANMU-1 04             
1 55974U 23039B   26192.92284737  .00010191  00000+0  19274-3 0  9996
2 55974  97.5170   7.0303 0003331  25.3691 334.7722 15.48603722184672
TIANMU-1 05             
1 55975U 23039C   26192.92509429  .00009514  00000+0  18448-3 0  9994
2 55975  97.5216   7.4826 0003251  54.3026 305.8526 15.47904496184642
TIANMU-1 06             
1 55976U 23039D   26192.92781498  .00009773  00000+0  18557-3 0  9991
2 55976  97.5224   8.1463 0003366  46.5924 313.5606 15.48500687184677
FENGYUN 3G              
1 56232U 23055A   26192.93995525  .00014014  00000+0  22149-3 0  9990
2 56232  49.9909 218.3763 0007127  41.2567 318.8938 15.53689515183855
METEOR-M2 3             
1 57166U 23091A   26192.97130495 -.00000028  00000+0  64328-5 0  9996
2 57166  98.6070 247.4408 0005145  97.5212 262.6551 14.24048720158044
TIANMU-1 07             
1 57399U 23101A   26192.95362463  .00003852  00000+0  13481-3 0  9995
2 57399  97.2585 243.0552 0003953  71.1434 289.0235 15.30091621165438
TIANMU-1 08             
1 57400U 23101B   26192.98559731  .00003815  00000+0  13352-3 0  9993
2 57400  97.2573 242.8535 0004892  54.8222 305.3476 15.30095825165431
TIANMU-1 09             
1 57401U 23101C   26192.90304741  .00003868  00000+0  13518-3 0  9997
2 57401  97.2532 242.1760 0004558  72.1525 288.0213 15.30135292165426
TIANMU-1 10             
1 57402U 23101D   26192.93653399  .00003903  00000+0  13648-3 0  9991
2 57402  97.2611 243.2845 0005891  63.0098 297.1744 15.30108935165420
FENGYUN 3F              
1 57490U 23111A   26192.98935933 -.00000003  00000+0  19068-4 0  9993
2 57490  98.6826 262.5348 0001329  77.7308 282.4018 14.19943071152386
ARKTIKA-M 2             
1 58584U 23198A   26191.19028483  .00000186  00000+0  00000+0 0  9990
2 58584  63.2187 151.7914 6909064 267.3543  18.7503  2.00608615 18787
TIANMU-1 11             
1 58645U 23205A   26192.95295402  .00003419  00000+0  13077-3 0  9993
2 58645  97.3443 214.1240 0006773 276.7317  83.3151 15.27243753141309
TIANMU-1 12             
1 58646U 23205B   26192.99052132  .00003472  00000+0  13345-3 0  9996
2 58646  97.3432 213.9092 0005602 249.2542 110.8097 15.27074670141298
TIANMU-1 13             
1 58647U 23205C   26192.95842054  .00003415  00000+0  13135-3 0  9997
2 58647  97.3460 214.1564 0005474 226.1882 133.8905 15.27067079141282
TIANMU-1 14             
1 58648U 23205D   26193.00843147  .00003483  00000+0  13372-3 0  9997
2 58648  97.3396 213.3681 0006151 233.8703 126.1967 15.27111624141292
TIANMU-1 19             
1 58660U 23208A   26192.91506045  .00005078  00000+0  16720-3 0  9998
2 58660  97.4520 309.3496 0004266 211.0309 149.0681 15.31943768141116
